[{"OBJECT_NAME":"CENTISPACE-1 S9","OBJECT_ID":"2025-007D","EPOCH":"2026-03-09T22:07:56.074656","MEAN_MOTION":13.83191394,"ECCENTRICITY":0.00092392,"INCLINATION":54.9818,"RA_OF_ASC_NODE":279.4927,"ARG_OF_PERICENTER":251.979,"MEAN_ANOMALY":108.0161,"EPHEMERIS_TYPE":0,"CLASSIFICATION_TYPE":"U","NORAD_CAT_ID":62578,"ELEMENT_SET_NO":999,"REV_AT_EPOCH":6100,"BSTAR":0.00010536643,"MEAN_MOTION_DOT":-2.5e-7,"MEAN_MOTION_DDOT":0},{"OBJECT_NAME":"SL-8 R\/B","OBJECT_ID":"1971-111B","EPOCH":"2026-03-09T23:43:38.292096","MEAN_MOTION":13.77129665,"ECCENTRICITY":0.00220267,"INCLINATION":74.031,"RA_OF_ASC_NODE":351.7751,"ARG_OF_PERICENTER":88.3154,"MEAN_ANOMALY":349.6301,"EPHEMERIS_TYPE":0,"CLASSIFICATION_TYPE":"U","NORAD_CAT_ID":5685,"ELEMENT_SET_NO":999,"REV_AT_EPOCH":72405,"BSTAR":9.649306e-5,"MEAN_MOTION_DOT":7.3e-7,"MEAN_MOTION_DDOT":0}]
